STARLINK-2450           
1 48113U 21027X   23023.05852107  .00002868  00000+0  21131-3 0  9991
2 48113  53.0493 256.6100 0001234  87.6935 272.4195 15.06405083 99944
STARLINK-2451           
1 48114U 21027Y   23023.01933142  .00001582  00000+0  12507-3 0  9996
2 48114  53.0519 251.7706 0001129 101.0725 259.0391 15.06404145100011
STARLINK-2452           
1 48115U 21027Z   23023.04743652  .00000880  00000+0  77940-4 0  9998
2 48115  53.0499 246.6524 0001093 102.5573 257.5539 15.06401138100080
STARLINK-2454           
1 48116U 21027AA  23022.92214497  .00021018  00000+0  14255-2 0  9999
2 48116  53.0538 257.2137 0001041  68.3951 291.7148 15.06405888 99927
STARLINK-2455           
1 48117U 21027AB  23022.62816028  .00000775  00000+0  70927-4 0  9992
2 48117  53.0507 238.5405 0001733  97.9993 262.1192 15.06399941100168
STARLINK-2458           
1 48118U 21027AC  23023.43634457  .00001124  00000+0  94337-4 0  9997
2 48118  53.0518 234.9065 0001118  76.1438 283.9676 15.06390211100285
STARLINK-2459           
1 48119U 21027AD  23023.03361600  .00001382  00000+0  11167-3 0  9996
2 48119  53.0513 236.7127 0001249  76.5965 283.5163 15.06400856100222
STARLINK-2460           
1 48120U 21027AE  23023.04009244  .00013670  00000+0  93480-3 0  9993
2 48120  53.0500 256.6958 0001160  82.1640 277.9481 15.06400043 99942
STARLINK-2462           
1 48121U 21027AF  23023.40960720  .00000261  00000+0  36444-4 0  9999
2 48121  53.0517 245.0325 0001241  84.4298 275.6832 15.06400256100141
STARLINK-2463           
1 48122U 21027AG  23022.34667133  .00002439  00000+0  18255-3 0  9992
2 48122  53.0521 244.7687 0001225  79.6358 280.4769 15.06403215100050
STARLINK-2464           
1 48123U 21027AH  23022.68808676 -.00001106  00000+0 -55402-4 0  9997
2 48123  53.0501 238.2754 0001315  84.6985 275.4154 15.06391684100164
STARLINK-2465           
1 48124U 21027AJ  23023.41697133 -.00003652  00000+0 -22643-3 0  9992
2 48124  53.0526 244.9891 0001327  80.0784 280.0355 15.06390376100148
STARLINK-2466           
1 48125U 21027AK  23022.36927285 -.00002725  00000+0 -16412-3 0  9997
2 48125  53.0502 259.9468 0000783 112.3692 247.7380 15.06398660 99847
STARLINK-2467           
1 48126U 21027AL  23022.92030187 -.00000397  00000+0 -77674-5 0  9998
2 48126  53.0496 237.2299 0001175  84.8408 275.2715 15.06392571100201
STARLINK-2468           
1 48127U 21027AM  23023.04378182  .00006539  00000+0  45747-3 0  9999
2 48127  53.0511 256.6749 0001430  85.3999 274.7154 15.06397712 99941
STARLINK-2469           
1 48128U 21027AN  23023.15713090  .00003310  00000+0  24107-3 0  9994
2 48128  53.0534 186.2463 0001314  86.1679 273.9460 15.06385302100949
STARLINK-2471           
1 48129U 21027AP  23023.10275529  .00007952  00000+0  55215-3 0  9990
2 48129  53.0508 256.4055 0001136  75.1968 284.9147 15.06400327 99956
STARLINK-2472           
1 48130U 21027AQ  23023.02578322  .00000580  00000+0  57841-4 0  9998
2 48130  53.0516 261.7520 0001339  99.1186 260.9955 15.06402689 99871
STARLINK-2473           
1 48131U 21027AR  23023.57639436  .00000689  00000+0  65143-4 0  9997
2 48131  53.0535 234.2730 0000637  91.0055 269.1007 15.06395938100305
STARLINK-2474           
1 48132U 21027AS  23023.02536153  .00003680  00000+0  26582-3 0  9997
2 48132  53.0525 256.7467 0001327  79.7528 280.3611 15.06395890 99946
STARLINK-2475           
1 48133U 21027AT  23022.68992739 -.00002724  00000+0 -16410-3 0  9994
2 48133  53.0535 258.2535 0001183  86.3503 273.7621 15.06393222 99896
STARLINK-2476           
1 48134U 21027AU  23022.94056134 -.00006303  00000+0 -40473-3 0  9997
2 48134  53.0538 257.1346 0001508 107.8959 252.2195 15.06390469 99936
STARLINK-2478           
1 48135U 21027AV  23022.94197532  .00000252  00000+0  35810-4 0  9991
2 48135  53.0511 262.2933 0001046  80.4629 279.6478 15.06395687 99859
STARLINK-2479           
1 48136U 21027AW  23023.03177494 -.00000155  00000+0  84747-5 0  9995
2 48136  53.0519 256.7127 0001448  86.9403 273.1751 15.06396357 99946
STARLINK-2480           
1 48137U 21027AX  23023.38840746 -.00000580  00000+0 -20029-4 0  9996
2 48137  53.0521 235.0939 0001008  89.6057 270.5047 15.06402157100272
STARLINK-2481           
1 48138U 21027AY  23023.08431972  .00000338  00000+0  41615-4 0  9994
2 48138  53.0525 256.4815 0001235  93.3422 266.7708 15.06396879 99953
STARLINK-2482           
1 48139U 21027AZ  23022.54433246 -.00000326  00000+0 -30168-5 0  9992
2 48139  53.0492 238.9116 0001214  89.6838 270.4290 15.06396717100156
STARLINK-2483           
1 48140U 21027BA  23023.04283190  .00022591  00000+0  15306-2 0  9991
2 48140  53.0493 256.6804 0001257  97.5883 262.5249 15.06401983 99947
STARLINK-2484           
1 48141U 21027BB  23023.06589268  .00001712  00000+0  13381-3 0  9993
2 48141  53.0553 256.5635 0000988  97.6561 262.4541 15.06401120 99958
STARLINK-2485           
1 48142U 21027BC  23022.73968615  .00001023  00000+0  87584-4 0  9996
2 48142  53.0510 238.0389 0001282  79.5654 280.5479 15.06400420100184
STARLINK-2486           
1 48143U 21027BD  23022.52357270  .00001283  00000+0  10505-3 0  9999
2 48143  53.0525 194.0010 0001336  96.5736 263.5405 15.06396554100770
STARLINK-2487           
1 48144U 21027BE  23022.94609070 -.00002412  00000+0 -14307-3 0  9995
2 48144  53.0532 237.1124 0001730  49.2356 310.8783 15.06395231100210
STARLINK-2488           
1 48145U 21027BF  23022.88343796  .00003771  00000+0  27194-3 0  9994
2 48145  53.0515 237.3960 0001069  91.8121 268.2991 15.06394919100208
STARLINK-2489           
1 48146U 21027BG  23023.01428709  .00008858  00000+0  61285-3 0  9999
2 48146  53.0521 256.8041 0001234  89.3443 270.7688 15.06396040 99941
STARLINK-2490           
1 48147U 21027BH  23023.07833221 -.00000035  00000+0  16551-4 0  9992
2 48147  53.0529 261.5149 0001141  88.9645 271.1475 15.06400556 99888
STARLINK-2491           
1 48148U 21027BJ  23023.04745456  .00003180  00000+0  23227-3 0  9992
2 48148  53.0548 256.6447 0001546  69.6945 290.4210 15.06402949 99940
STARLINK-2492           
1 48149U 21027BK  23022.52958621 -.00000844  00000+0 -37766-4 0  9995
2 48149  53.0511 238.9801 0001168  94.7798 265.3324 15.06394668100143
STARLINK-2493           
1 48150U 21027BL  23022.99770328  .00002771  00000+0  20484-3 0  9991
2 48150  53.0524 236.8652 0001523  90.3627 269.7537 15.06397640100224
STARLINK-2503           
1 48151U 21027BM  23023.00138651  .00000206  00000+0  32750-4 0  9993
2 48151  53.0508 236.8583 0001207  95.9079 264.2047 15.06399266100223
SHIYAN 6 03 (SY-6 03)   
1 48157U 21028A   23022.67256971 -.00000008  00000+0  48458-4 0  9991
2 48157  99.5098  26.1370 0085215  67.6616 293.3526 13.54224298 89107
ONEWEB-0176             
1 48210U 21031A   23022.39266042 -.00000025  00000+0 -10138-3 0  9997
2 48210  87.9098 176.6803 0001254  99.3971 260.7300 13.14502145 86467
ONEWEB-0184             
1 48211U 21031B   23022.67177077 -.00000103  00000+0 -31243-3 0  9995
2 48211  87.9099 176.5984 0001517  48.2342 311.8917 13.14500841 85186
ONEWEB-0179             
1 48212U 21031C   23022.71614961  .00000001  00000+0 -32763-4 0  9994
2 48212  87.9099 176.5889 0001243 109.3276 250.7988 13.14506537 85235
ONEWEB-0180             
1 48213U 21031D   23023.13056728 -.00000343  00000+0 -96075-3 0  9998
2 48213  87.9104 176.5041 0001339 106.6264 253.5012 13.14503839 85170
ONEWEB-0218             
1 48214U 21031E   23022.39055994  .00000178  00000+0  44629-3 0  9992
2 48214  87.9098 176.6599 0001006  32.2595 327.8596 13.14502223 85239
ONEWEB-0209             
1 48215U 21031F   23022.37996147 -.00000547  00000+0 -15098-2 0  9994
2 48215  87.9101 176.6928 0001305 104.2634 255.8640 13.14503125 85239
ONEWEB-0198             
1 48216U 21031G   23023.12634105 -.00000039  00000+0 -14039-3 0  9993
2 48216  87.9104 176.5567 0000838  85.3198 274.8027 13.14505181 85420
ONEWEB-0189             
1 48217U 21031H   23022.37786093 -.00000230  00000+0 -65372-3 0  9993
2 48217  87.9097 176.6908 0000839  93.1725 266.9500 13.14504571 85088
ONEWEB-0196             
1 48218U 21031J   23023.11790191  .00000224  00000+0  57071-3 0  9999
2 48218  87.9103 176.5296 0001288  91.6211 268.5066 13.14502047 85179
ONEWEB-0183             
1 48219U 21031K   23023.31875736  .00005835  00000+0  15700-1 0  9995
2 48219  87.9106 176.5095 0001572 110.6015 249.5284 13.14476699 85309
ONEWEB-0185             
1 48220U 21031L   23022.89058993  .00000049  00000+0  98246-4 0  9998
2 48220  87.9102 176.5710 0001303 104.3789 255.7485 13.14500573 85177
ONEWEB-0187             
1 48221U 21031M   23022.48462986  .00000200  00000+0  50607-3 0  9992
2 48221  87.9102 176.6761 0001278 106.1647 253.9623 13.14506536 85134
ONEWEB-0192             
1 48222U 21031N   23022.38207575 -.00000148  00000+0 -43408-3 0  9997
2 48222  87.9098 176.6423 0001259  91.4868 268.6405 13.14506108 85040
ONEWEB-0219             
1 48223U 21031P   23023.12424008  .00000002  00000+0 -30177-4 0  9991
2 48223  87.9102 176.5333 0001326 106.8930 253.2345 13.14502427 85348
ONEWEB-0202             
1 48224U 21031Q   23022.72251227  .00000491  00000+0  12900-2 0  9991
2 48224  87.9101 176.6299 0000614  43.7062 316.4116 13.14503460 85272
ONEWEB-0204             
1 48225U 21031R   23023.31559490  .00000109  00000+0  25925-3 0  9999
2 48225  87.9103 176.5380 0002063 100.7126 259.4236 13.14504659 85247
ONEWEB-0205             
1 48226U 21031S   23023.11366328  .00000201  00000+0  50776-3 0  9999
2 48226  87.9103 176.5320 0000997  99.6992 260.4250 13.14505556 85237
ONEWEB-0206             
1 48227U 21031T   23022.93392526 -.00001012  00000+0 -27646-2 0  9990
2 48227  87.9103 176.5536 0001375 110.8652 249.2625 13.14507328 85169
ONEWEB-0182             
1 48228U 21031U   23022.39475833 -.00000346  00000+0 -96732-3 0  9996
2 48228  87.9103 176.7345 0001302 107.4499 252.6773 13.14502166 85304
ONEWEB-0186             
1 48229U 21031V   23023.32087138  .00000173  00000+0  43146-3 0  9995
2 48229  87.9104 176.4638 0001154  99.6272 260.4988 13.14502023 85378
